NORAD_CAT_ID,OBJECT_NAME,OBJECT_TYPE,EPOCH,MEAN_MOTION,ECCENTRICITY,INCLINATION,RA_OF_ASC_NODE,ARG_OF_PERICENTER,MEAN_ANOMALY,BSTAR,MEAN_MOTION_DOT,MEAN_MOTION_DDOT,TLE_LINE0,TLE_LINE1,TLE_LINE2,SEMIMAJOR_AXIS,PERIOD,APOGEE,PERIGEE,DECAYED
53834.0,STARLINK-4737,PAYLOAD,2024-01-23 16:06:37,15.08843387,0.0001421,53.2168,187.4729,94.7215,265.3939,3.4128e-05,2.55e-06,0.0,0 STARLINK-4737,1 53834U 22114S   24023.67126457  .00000255  00000-0  34128-4 0  9996,2 53834  53.2168 187.4729 0001421  94.7215 265.3939 15.08843387 75145,6917.87,95.437,540.718,538.752,0.0
53834.0,STARLINK-4737,PAYLOAD,2024-01-23 17:42:00,15.0884364,0.0001434,53.2168,187.1755,95.8941,264.2214,3.4782e-05,2.66e-06,0.0,0 STARLINK-4737,1 53834U 22114S   24023.73750347  .00000266  00000-0  34782-4 0  9992,2 53834  53.2168 187.1755 0001434  95.8941 264.2214 15.08843640 75699,6917.869,95.437,540.726,538.742,0.0
53834.0,STARLINK-4737,PAYLOAD,2024-01-24 14:22:01,15.08839468,0.0001498,53.2163,183.3083,112.5249,247.5902,-5.1501e-05,-1.108e-05,0.0,0 STARLINK-4737,1 53834U 22114S   24024.59862863 -.00001108  00000-0 -51501-4 0  9990,2 53834  53.2163 183.3083 0001498 112.5249 247.5902 15.08839468 75820,6917.882,95.438,540.783,538.711,0.0
53834.0,STARLINK-4737,PAYLOAD,2024-01-24 17:32:48,15.08821969,0.0001616,53.2171,182.714,111.4747,248.6418,0.00013248,1.82e-05,0.0,0 STARLINK-4737,1 53834U 22114S   24024.73111384  .00001820  00000-0  13248-3 0  9995,2 53834  53.2171 182.7140 0001616 111.4747 248.6418 15.08821969 75303,6917.936,95.439,540.918,538.683,0.0
53834.0,STARLINK-4737,PAYLOAD,2024-01-25 14:12:50,15.08823254,0.0001462,53.2162,178.846,91.6747,268.4412,-0.00011793,-2.163e-05,0.0,0 STARLINK-4737,1 53834U 22114S   24025.59224919 -.00002163  00000-0 -11793-3 0  9995,2 53834  53.2162 178.8460 0001462  91.6747 268.4412 15.08823254 75978,6917.932,95.439,540.808,538.785,0.0
53834.0,STARLINK-4737,PAYLOAD,2024-01-25 15:48:13,15.08822278,0.0001406,53.2168,178.5497,109.9276,250.1868,-0.00010848,-2.013e-05,0.0,0 STARLINK-4737,1 53834U 22114S   24025.65848931 -.00002013  00000-0 -10848-3 0  9992,2 53834  53.2168 178.5497 0001406 109.9276 250.1868 15.08822278 75449,6917.935,95.439,540.772,538.827,0.0
53834.0,STARLINK-4737,PAYLOAD,2024-01-26 14:03:36,15.08834174,0.0001373,53.2175,174.3898,114.6782,245.4353,9.5144e-05,1.226e-05,0.0,0 STARLINK-4737,1 53834U 22114S   24026.58584363  .00001226  00000-0  95144-4 0  9997,2 53834  53.2175 174.3898 0001373 114.6782 245.4353 15.08834174 76124,6917.898,95.438,540.713,538.813,0.0
53834.0,STARLINK-4737,PAYLOAD,2024-01-26 18:49:45,15.08840959,0.0001426,53.2178,173.4917,80.9384,279.1769,0.00018234,2.615e-05,0.0,0 STARLINK-4737,1 53834U 22114S   24026.78455938  .00002615  00000-0  18234-3 0  9991,2 53834  53.2178 173.4917 0001426  80.9384 279.1769 15.08840959 75617,6917.877,95.437,540.729,538.756,0.0
53834.0,STARLINK-4737,PAYLOAD,2024-01-27 13:54:23,15.08848964,0.0001355,53.2174,169.9307,86.2974,273.8173,0.00023082,3.388e-05,0.0,0 STARLINK-4737,1 53834U 22114S   24027.57943546  .00003388  00000-0  23082-3 0  9991,2 53834  53.2174 169.9307 0001355  86.2974 273.8173 15.08848964 76278,6917.853,95.437,540.655,538.781,0.0
53834.0,STARLINK-4737,PAYLOAD,2024-01-27 18:40:32,15.08854624,0.0001717,53.2165,169.0371,44.9331,315.18,0.00036748,5.568e-05,0.0,0 STARLINK-4737,1 53834U 22114S   24027.77815126  .00005568  00000-0  36748-3 0  9990,2 53834  53.2165 169.0371 0001717  44.9331 315.1800 15.08854624 75760,6917.836,95.437,540.888,538.513,0.0
53834.0,STARLINK-4737,PAYLOAD,2024-01-28 08:59:01,15.08851486,0.0001424,53.2169,166.3628,72.3533,287.7615,2.2027e-05,6.3e-07,0.0,0 STARLINK-4737,1 53834U 22114S   24028.37431862  .00000063  00000-0  22027-4 0  9999,2 53834  53.2169 166.3628 0001424  72.3533 287.7615 15.08851486 75854,6917.845,95.437,540.695,538.725,0.0
53834.0,STARLINK-4737,PAYLOAD,2024-01-28 13:45:10,15.08853453,0.0001548,53.2165,165.4686,100.6459,259.4707,2.5176e-05,1.13e-06,0.0,0 STARLINK-4737,1 53834U 22114S   24028.57303415  .00000113  00000-0  25176-4 0  9997,2 53834  53.2165 165.4686 0001548 100.6459 259.4707 15.08853453 76421,6917.839,95.437,540.775,538.633,0.0
53834.0,STARLINK-4737,PAYLOAD,2024-01-28 15:20:33,15.0885267,0.0001385,53.2168,165.1714,109.0495,251.0647,1.5632e-05,-3.9e-07,0.0,0 STARLINK-4737,1 53834U 22114S   24028.63927354 -.00000039  00000-0  15632-4 0  9992,2 53834  53.2168 165.1714 0001385 109.0495 251.0647 15.08852670 76437,6917.842,95.437,540.665,538.749,0.0
53834.0,STARLINK-4737,PAYLOAD,2024-01-29 12:00:33,15.08852211,0.0001504,53.2177,161.3065,112.3015,247.8137,-2.3718e-05,-6.66e-06,0.0,0 STARLINK-4737,1 53834U 22114S   24029.50038965 -.00000666  00000-0 -23718-4 0  9991,2 53834  53.2177 161.3065 0001504 112.3015 247.8137 15.08852211 76025,6917.843,95.437,540.749,538.668,0.0
53834.0,STARLINK-4737,PAYLOAD,2024-01-29 18:22:05,15.0885901,0.0001472,53.2176,160.1141,118.9311,241.1829,-1.2077e-05,-4.8e-06,0.0,0 STARLINK-4737,1 53834U 22114S   24029.76534218 -.00000480  00000-0 -12077-4 0  9991,2 53834  53.2176 160.1141 0001472 118.9311 241.1829 15.08859010 76604,6917.822,95.436,540.706,538.669,0.0
53834.0,STARLINK-4737,PAYLOAD,2024-01-30 11:51:21,15.08839012,0.0001468,53.2176,156.8442,114.7645,245.35,-3.9904e-06,-3.51e-06,0.0,0 STARLINK-4737,1 53834U 22114S   24030.49399414 -.00000351  00000-0 -39904-5 0  9996,2 53834  53.2176 156.8442 0001468 114.7645 245.3500 15.08839012 76173,6917.883,95.438,540.764,538.733,0.0
53834.0,STARLINK-4737,PAYLOAD,2024-01-30 13:26:44,15.08836414,0.0001417,53.2169,156.5489,99.8749,260.2403,1.8999e-05,1.4e-07,0.0,0 STARLINK-4737,1 53834U 22114S   24030.56023593  .00000014  00000-0  18999-4 0  9990,2 53834  53.2169 156.5489 0001417  99.8749 260.2403 15.08836414 76727,6917.891,95.438,540.737,538.776,0.0
53834.0,STARLINK-4737,PAYLOAD,2024-01-30 18:12:53,15.08841805,0.0001426,53.2171,155.6532,111.9682,248.1462,-1.3103e-06,-3.09e-06,0.0,0 STARLINK-4737,1 53834U 22114S   24030.75895171 -.00000309  00000-0 -13103-5 0  9992,2 53834  53.2171 155.6532 0001426 111.9682 248.1462 15.08841805 76754,6917.875,95.437,540.726,538.753,0.0
53834.0,STARLINK-4737,PAYLOAD,2024-01-31 11:42:07,15.08858966,0.0001384,53.2171,152.3816,105.1509,254.9636,-0.00023056,-3.957e-05,0.0,0 STARLINK-4737,1 53834U 22114S   24031.48759067 -.00003957  00000-0 -23056-3 0  9994,2 53834  53.2171 152.3816 0001384 105.1509 254.9636 15.08858966 76326,6917.822,95.436,540.645,538.73,0.0
53834.0,STARLINK-4737,PAYLOAD,2024-02-01 11:32:55,15.08836819,0.0001413,53.2169,147.922,96.7963,263.319,7.5385e-05,9.12e-06,0.0,0 STARLINK-4737,1 53834U 22114S   24032.48119731  .00000912  00000-0  75385-4 0  9992,2 53834  53.2169 147.9220 0001413  96.7963 263.3190 15.08836819 76472,6917.89,95.438,540.733,538.778,0.0
53834.0,STARLINK-4737,PAYLOAD,2024-02-01 16:19:04,15.08838736,0.0001417,53.2169,147.0296,95.716,264.3994,8.9574e-05,1.138e-05,0.0,0 STARLINK-4737,1 53834U 22114S   24032.67991631  .00001138  00000-0  89574-4 0  9996,2 53834  53.2169 147.0296 0001417  95.7160 264.3994 15.08838736 77045,6917.884,95.438,540.73,538.769,0.0
53834.0,STARLINK-4737,PAYLOAD,2024-02-02 14:34:28,15.08844519,0.0001549,53.2178,142.8656,90.3467,269.7702,0.00012676,1.73e-05,0.0,0 STARLINK-4737,1 53834U 22114S   24033.60727352  .00001730  00000-0  12676-3 0  9993,2 53834  53.2178 142.8656 0001549  90.3467 269.7702 15.08844519 77182,6917.867,95.437,540.803,538.66,0.0
53834.0,STARLINK-4737,PAYLOAD,2024-02-03 12:49:53,15.08817567,0.0001633,53.2178,138.7081,75.2594,284.8579,0.00031548,4.733e-05,0.0,0 STARLINK-4737,1 53834U 22114S   24034.53464692  .00004733  00000-0  31548-3 0  9996,2 53834  53.2178 138.7081 0001633  75.2594 284.8579 15.08817567 77324,6917.949,95.439,540.944,538.684,0.0
53834.0,STARLINK-4737,PAYLOAD,2024-02-03 16:00:38,15.08841716,0.0001471,53.2176,138.1092,91.9918,268.1243,7.9323e-05,9.75e-06,0.0,0 STARLINK-4737,1 53834U 22114S   24034.66711767  .00000975  00000-0  79323-4 0  9996,2 53834  53.2176 138.1092 0001471  91.9918 268.1243 15.08841716 76801,6917.875,95.437,540.758,538.723,0.0
53834.0,STARLINK-4737,PAYLOAD,2024-02-04 14:16:02,15.08850543,0.0001666,53.2178,133.951,83.7247,276.3935,7.8025e-05,9.54e-06,0.0,0 STARLINK-4737,1 53834U 22114S   24035.59447336  .00000954  00000-0  78025-4 0  9992,2 53834  53.2178 133.9510 0001666  83.7247 276.3935 15.08850543 77483,6917.848,95.437,540.866,538.561,0.0
53834.0,STARLINK-4737,PAYLOAD,2024-02-05 12:31:26,15.08845046,0.0001262,53.2172,129.7825,114.7673,245.345,3.7524e-05,3.09e-06,0.0,0 STARLINK-4737,1 53834U 22114S   24036.52183352  .00000309  00000-0  37524-4 0  9994,2 53834  53.2172 129.7825 0001262 114.7673 245.3450 15.08845046 77085,6917.865,95.437,540.603,538.857,0.0
53834.0,STARLINK-4737,PAYLOAD,2024-02-06 12:22:13,15.0884032,0.0001457,53.2169,125.3242,86.1366,273.9793,-3.8365e-05,-8.98e-06,0.0,0 STARLINK-4737,1 53834U 22114S   24037.51543930 -.00000898  00000-0 -38365-4 0  9995,2 53834  53.2169 125.3242 0001457  86.1366 273.9793 15.08840320 77776,6917.879,95.438,540.752,538.736,0.0
53834.0,STARLINK-4737,PAYLOAD,2024-02-07 12:13:01,15.08846671,0.0001365,53.2177,120.8659,88.8379,271.2769,-0.00015424,-2.742e-05,0.0,0 STARLINK-4737,1 53834U 22114S   24038.50904336 -.00002742  00000-0 -15424-3 0  9996,2 53834  53.2177 120.8659 0001365  88.8379 271.2769 15.08846671 77924,6917.86,95.437,540.669,538.781,0.0
53834.0,STARLINK-4737,PAYLOAD,2024-02-08 12:03:49,15.08828483,0.0001572,53.2175,116.4042,89.0311,271.0861,6.7561e-05,7.87e-06,0.0,0 STARLINK-4737,1 53834U 22114S   24039.50265514  .00000787  00000-0  67561-4 0  9990,2 53834  53.2175 116.4042 0001572  89.0311 271.0861 15.08828483 77537,6917.916,95.438,540.868,538.693,0.0
53834.0,STARLINK-4737,PAYLOAD,2024-02-09 03:57:40,15.08841535,0.0001435,53.2165,113.4286,79.2536,280.8618,0.00014212,1.975e-05,0.0,0 STARLINK-4737,1 53834U 22114S   24040.16504831  .00001975  00000-0  14212-3 0  9996,2 53834  53.2165 113.4286 0001435  79.2536 280.8618 15.08841535 77633,6917.876,95.437,540.733,538.748,0.0
